[{"OBJECT_NAME":"STARLINK-5603","OBJECT_ID":"2023-028X","EPOCH":"2026-03-09T20:16:12.587232","MEAN_MOTION":14.98338887,"ECCENTRICITY":0.00029708,"INCLINATION":69.9999,"RA_OF_ASC_NODE":224.1705,"ARG_OF_PERICENTER":283.563,"MEAN_ANOMALY":76.5198,"EPHEMERIS_TYPE":0,"CLASSIFICATION_TYPE":"U","NORAD_CAT_ID":55762,"ELEMENT_SET_NO":999,"REV_AT_EPOCH":16655,"BSTAR":0.00010793397,"MEAN_MOTION_DOT":1.195e-5,"MEAN_MOTION_DDOT":0},{"OBJECT_NAME":"FENGYUN 1C DEB","OBJECT_ID":"1999-025BRA","EPOCH":"2026-03-07T21:38:03.570144","MEAN_MOTION":15.14550758,"ECCENTRICITY":0.01045185,"INCLINATION":98.8762,"RA_OF_ASC_NODE":52.6466,"ARG_OF_PERICENTER":91.2586,"MEAN_ANOMALY":270.0618,"EPHEMERIS_TYPE":0,"CLASSIFICATION_TYPE":"U","NORAD_CAT_ID":31346,"ELEMENT_SET_NO":999,"REV_AT_EPOCH":773,"BSTAR":0.0014203897,"MEAN_MOTION_DOT":0.00030047,"MEAN_MOTION_DDOT":0}]
